start=new Date('2022-08-18T00:00:00.000Z').valueOf();
sats=[{"EPHEMERIS_TYPE":"0","CENTER_NAME":"EARTH","CLASSIFICATION_TYPE":"U","ELEMENT_SET_NO":"999","TLE_LINE2":"2 53011  53.2161 176.0879 0002206  16.6139 274.1144 15.73161039  6975","EPOCH":"2022-08-17T16:00:00.999936","OBJECT_TYPE":"PAYLOAD","TIME_SYSTEM":"UTC","APOAPSIS":"351.355","SITE":"AFETR","COUNTRY_CODE":"US","MEAN_MOTION":"15.73161039","SEMIMAJOR_AXIS":"6728.006","LAUNCH_DATE":"2022-07-07","MEAN_MOTION_DDOT":"0.0000000000000","DECAY_DATE":null,"MEAN_ELEMENT_THEORY":"SGP4","RCS_SIZE":"LARGE","RA_OF_ASC_NODE":"176.0879","FILE":"3538788","REV_AT_EPOCH":"697","MEAN_ANOMALY":"274.1144","TLE_LINE1":"1 53011U 22076AB  22229.66667824  .00076138  00000-0  54287-3 0  9993","PERIOD":"91.535","PERIAPSIS":"348.387","ARG_OF_PERICENTER":"16.6139","NORAD_CAT_ID":"53011","REF_FRAME":"TEME","OBJECT_NAME":"STARLINK-4265","BSTAR":"0.00054287000000","OBJECT_ID":"2022-076AB","MEAN_MOTION_DOT":"0.00076138","GP_ID":"210383880","INCLINATION":"53.2161","ECCENTRICITY":"0.00022060"},{"CENTER_NAME":"EARTH","EPHEMERIS_TYPE":"0","TLE_LINE2":"2 53012  53.2176 176.6615 0001171  68.6458  44.7606 15.64280282  1305","EPOCH":"2022-08-17T14:00:01.000224","CLASSIFICATION_TYPE":"U","ELEMENT_SET_NO":"999","TIME_SYSTEM":"UTC","APOAPSIS":"376.102","OBJECT_TYPE":"PAYLOAD","COUNTRY_CODE":"US","SITE":"AFETR","MEAN_MOTION":"15.64280282","SEMIMAJOR_AXIS":"6753.446","LAUNCH_DATE":"2022-07-07","MEAN_MOTION_DDOT":"0.0000000000000","DECAY_DATE":null,"RA_OF_ASC_NODE":"176.6615","MEAN_ELEMENT_THEORY":"SGP4","RCS_SIZE":"LARGE","FILE":"3538809","REV_AT_EPOCH":"130","TLE_LINE1":"1 53012U 22076AC  22229.58334491 -.01048938  00000-0 -12024-1 0  9997","PERIAPSIS":"374.521","ARG_OF_PERICENTER":"68.6458","PERIOD":"92.055","MEAN_ANOMALY":"44.7606","REF_FRAME":"TEME","NORAD_CAT_ID":"53012","OBJECT_NAME":"STARLINK-4271","BSTAR":"-0.01202400000000","INCLINATION":"53.2176","GP_ID":"210408621","MEAN_MOTION_DOT":"-0.01048938","OBJECT_ID":"2022-076AC","ECCENTRICITY":"0.00011710"},{"NORAD_CAT_ID":"53013","REF_FRAME":"TEME","OBJECT_NAME":"STARLINK-4177","BSTAR":"0.00055587000000","MEAN_MOTION_DOT":"0.00077931","OBJECT_ID":"2022-076AD","GP_ID":"210383872","INCLINATION":"53.2174","ECCENTRICITY":"0.00016010","DECAY_DATE":null,"MEAN_ELEMENT_THEORY":"SGP4","RCS_SIZE":"LARGE","RA_OF_ASC_NODE":"176.0828","FILE":"3538785","REV_AT_EPOCH":"697","MEAN_ANOMALY":"267.9661","TLE_LINE1":"1 53013U 22076AD  22229.66667824  .00077931  00000-0  55587-3 0  9991","PERIAPSIS":"348.843","PERIOD":"91.536","ARG_OF_PERICENTER":"24.5326","MEAN_MOTION":"15.73143786","SEMIMAJOR_AXIS":"6728.055","LAUNCH_DATE":"2022-07-07","MEAN_MOTION_DDOT":"0.0000000000000","CENTER_NAME":"EARTH","EPHEMERIS_TYPE":"0","CLASSIFICATION_TYPE":"U","ELEMENT_SET_NO":"999","EPOCH":"2022-08-17T16:00:00.999936","TLE_LINE2":"2 53013  53.2174 176.0828 0001601  24.5326 267.9661 15.73143786  6972","OBJECT_TYPE":"PAYLOAD","TIME_SYSTEM":"UTC","APOAPSIS":"350.998","SITE":"AFETR","COUNTRY_CODE":"US"},{"BSTAR":"0.00053221000000","OBJECT_NAME":"STARLINK-4183","NORAD_CAT_ID":"53014","REF_FRAME":"TEME","ECCENTRICITY":"0.00021340","OBJECT_ID":"2022-076AE","MEAN_MOTION_DOT":"0.00074640","INCLINATION":"53.2164","GP_ID":"210383866","RCS_SIZE":"LARGE","MEAN_ELEMENT_THEORY":"SGP4","RA_OF_ASC_NODE":"176.0901","DECAY_DATE":null,"MEAN_ANOMALY":"276.0975","PERIOD":"91.535","PERIAPSIS":"348.415","ARG_OF_PERICENTER":"13.4095","TLE_LINE1":"1 53014U 22076AE  22229.66667824  .00074640  00000-0  53221-3 0  9999","REV_AT_EPOCH":"697","FILE":"3538785","SEMIMAJOR_AXIS":"6727.986","MEAN_MOTION":"15.73168250","MEAN_MOTION_DDOT":"0.0000000000000","LAUNCH_DATE":"2022-07-07","CLASSIFICATION_TYPE":"U","ELEMENT_SET_NO":"999","TLE_LINE2":"2 53014  53.2164 176.0901 0002134  13.4095 276.0975 15.73168250  6978","EPOCH":"2022-08-17T16:00:00.999936","EPHEMERIS_TYPE":"0","CENTER_NAME":"EARTH","SITE":"AFETR","COUNTRY_CODE":"US","OBJECT_TYPE":"PAYLOAD","TIME_SYSTEM":"UTC","APOAPSIS":"351.286"},{"TLE_LINE1":"1 53015U 22076AF  22229.58334491 -.00003896  00000-0 -23370-4 0  9992","PERIOD":"91.535","PERIAPSIS":"348.199","ARG_OF_PERICENTER":"21.0274","MEAN_ANOMALY":"160.4366","FILE":"3538809","REV_AT_EPOCH":"130","RA_OF_ASC_NODE":"176.4948","MEAN_ELEMENT_THEORY":"SGP4","RCS_SIZE":"LARGE","DECAY_DATE":null,"ECCENTRICITY":"0.00024580","INCLINATION":"53.2162","GP_ID":"210409166","OBJECT_ID":"2022-076AF","MEAN_MOTION_DOT":"-0.00003896","OBJECT_NAME":"STARLINK-4262","BSTAR":"-0.00002337000000","REF_FRAME":"TEME","NORAD_CAT_ID":"53015","COUNTRY_CODE":"US","SITE":"AFETR","TIME_SYSTEM":"UTC","APOAPSIS":"351.507","OBJECT_TYPE":"PAYLOAD","TLE_LINE2":"2 53015  53.2162 176.4948 0002458  21.0274 160.4366 15.73167375  1304","EPOCH":"2022-08-17T14:00:01.000224","CLASSIFICATION_TYPE":"U","ELEMENT_SET_NO":"999","EPHEMERIS_TYPE":"0","CENTER_NAME":"EARTH","MEAN_MOTION_DDOT":"0.0000000000000","LAUNCH_DATE":"2022-07-07","SEMIMAJOR_AXIS":"6727.988","MEAN_MOTION":"15.73167375"},{"BSTAR":"0.00122890000000","OBJECT_NAME":"STARLINK-4283","REF_FRAME":"TEME","NORAD_CAT_ID":"53016","ECCENTRICITY":"0.00021100","GP_ID":"210382508","INCLINATION":"53.2173","MEAN_MOTION_DOT":"0.00174215","OBJECT_ID":"2022-076AG","RA_OF_ASC_NODE":"176.0716","RCS_SIZE":"LARGE","MEAN_ELEMENT_THEORY":"SGP4","DECAY_DATE":null,"ARG_OF_PERICENTER":"22.8304","PERIAPSIS":"348.821","PERIOD":"91.543","TLE_LINE1":"1 53016U 22076AG  22229.66667824  .00174215  00000-0  12289-2 0  9998","MEAN_ANOMALY":"268.5475","REV_AT_EPOCH":"697","FILE":"3538716","SEMIMAJOR_AXIS":"6728.375","MEAN_MOTION":"15.73031639","MEAN_MOTION_DDOT":"0.0000000000000","LAUNCH_DATE":"2022-07-07","TLE_LINE2":"2 53016  53.2173 176.0716 0002110  22.8304 268.5475 15.73031639  6976","EPOCH":"2022-08-17T16:00:00.999936","CLASSIFICATION_TYPE":"U","ELEMENT_SET_NO":"999","EPHEMERIS_TYPE":"0","CENTER_NAME":"EARTH","COUNTRY_CODE":"US","SITE":"AFETR","TIME_SYSTEM":"UTC","APOAPSIS":"351.660","OBJECT_TYPE":"PAYLOAD"},{"ECCENTRICITY":"0.00022630","OBJECT_ID":"2022-076AH","MEAN_MOTION_DOT":"0.00000437","INCLINATION":"53.2174","GP_ID":"210382524","BSTAR":"0.00000754410000","OBJECT_NAME":"STARLINK-4281","NORAD_CAT_ID":"53017","REF_FRAME":"TEME","MEAN_ANOMALY":"261.2121","PERIAPSIS":"348.227","ARG_OF_PERICENTER":"33.0024","PERIOD":"91.533","TLE_LINE1":"1 53017U 22076AH  22229.66667824  .00000437  00000-0  75441-5 0  9995","REV_AT_EPOCH":"697","FILE":"3538733","RCS_SIZE":"LARGE","MEAN_ELEMENT_THEORY":"SGP4","RA_OF_ASC_NODE":"176.0603","DECAY_DATE":null,"MEAN_MOTION_DDOT":"0.0000000000000","LAUNCH_DATE":"2022-07-07","SEMIMAJOR_AXIS":"6727.884","MEAN_MOTION":"15.73203808","SITE":"AFETR","COUNTRY_CODE":"US","OBJECT_TYPE":"PAYLOAD","TIME_SYSTEM":"UTC","APOAPSIS":"351.272","CLASSIFICATION_TYPE":"U","ELEMENT_SET_NO":"999","EPOCH":"2022-08-17T16:00:00.999936","TLE_LINE2":"2 53017  53.2174 176.0603 0002263  33.0024 261.2121 15.73203808  6972","CENTER_NAME":"EARTH","EPHEMERIS_TYPE":"0"},{"DECAY_DATE":null,"RCS_SIZE":"LARGE","MEAN_ELEMENT_THEORY":"SGP4","RA_OF_ASC_NODE":"176.4851","REV_AT_EPOCH":"130","FILE":"3538809","MEAN_ANOMALY":"157.4679","PERIAPSIS":"348.580","ARG_OF_PERICENTER":"22.2265","PERIOD":"91.537","TLE_LINE1":"1 53018U 22076AJ  22229.58334491 -.00016447  00000-0 -11326-3 0  9998","NORAD_CAT_ID":"53018","REF_FRAME":"TEME","BSTAR":"-0.00011326000000","OBJECT_NAME":"STARLINK-4279","OBJECT_ID":"2022-076AJ","MEAN_MOTION_DOT":"-0.00016447","INCLINATION":"53.2169","GP_ID":"210408894","ECCENTRICITY":"0.00019980","CENTER_NAME":"EARTH","EPHEMERIS_TYPE":"0","CLASSIFICATION_TYPE":"U","ELEMENT_SET_NO":"999","TLE_LINE2":"2 53018  53.2169 176.4851 0001998  22.2265 157.4679 15.73142285  1304","EPOCH":"2022-08-17T14:00:01.000224","OBJECT_TYPE":"PAYLOAD","APOAPSIS":"351.269","TIME_SYSTEM":"UTC","SITE":"AFETR","COUNTRY_CODE":"US","MEAN_MOTION":"15.73142285","SEMIMAJOR_AXIS":"6728.060","LAUNCH_DATE":"2022-07-07","MEAN_MOTION_DDOT":"0.0000000000000"},{"MEAN_ELEMENT_THEORY":"SGP4","RCS_SIZE":"LARGE","RA_OF_ASC_NODE":"176.4902","DECAY_DATE":null,"MEAN_ANOMALY":"168.5301","TLE_LINE1":"1 53019U 22076AK  22229.58334491 -.00007631  00000-0 -50043-4 0  9994","PERIOD":"91.535","PERIAPSIS":"348.169","ARG_OF_PERICENTER":"14.7330","FILE":"3538809","REV_AT_EPOCH":"130","OBJECT_NAME":"STARLINK-4282","BSTAR":"-0.00005004300000","NORAD_CAT_ID":"53019","REF_FRAME":"TEME","ECCENTRICITY":"0.00024810","OBJECT_ID":"2022-076AK","MEAN_MOTION_DOT":"-0.00007631","GP_ID":"210408758","INCLINATION":"53.2178","ELEMENT_SET_NO":"999","CLASSIFICATION_TYPE":"U","TLE_LINE2":"2 53019  53.2178 176.4902 0002481  14.7330 168.5301 15.73172667  1301","EPOCH":"2022-08-17T14:00:01.000224","CENTER_NAME":"EARTH","EPHEMERIS_TYPE":"0","SITE":"AFETR","COUNTRY_CODE":"US","OBJECT_TYPE":"PAYLOAD","TIME_SYSTEM":"UTC","APOAPSIS":"351.507","SEMIMAJOR_AXIS":"6727.973","MEAN_MOTION":"15.73172667","MEAN_MOTION_DDOT":"0.0000000000000","LAUNCH_DATE":"2022-07-07"},{"MEAN_MOTION_DDOT":"0.0000000000000","LAUNCH_DATE":"2022-07-07","SEMIMAJOR_AXIS":"6727.976","MEAN_MOTION":"15.73171728","COUNTRY_CODE":"US","SITE":"AFETR","TIME_SYSTEM":"UTC","APOAPSIS":"351.066","OBJECT_TYPE":"PAYLOAD","TLE_LINE2":"2 53020  53.2177 176.4943 0001821  25.3356 155.5627 15.73171728  1304","EPOCH":"2022-08-17T14:00:01.000224","CLASSIFICATION_TYPE":"U","ELEMENT_SET_NO":"999","CENTER_NAME":"EARTH","EPHEMERIS_TYPE":"0","ECCENTRICITY":"0.00018210","INCLINATION":"53.2177","GP_ID":"210408622","MEAN_MOTION_DOT":"-0.00005097","OBJECT_ID":"2022-076AL","BSTAR":"-0.00003195100000","OBJECT_NAME":"STARLINK-4287","REF_FRAME":"TEME","NORAD_CAT_ID":"53020","PERIOD":"91.535","PERIAPSIS":"348.616","ARG_OF_PERICENTER":"25.3356","TLE_LINE1":"1 53020U 22076AL  22229.58334491 -.00005097  00000-0 -31951-4 0  9997","MEAN_ANOMALY":"155.5627","REV_AT_EPOCH":"130","FILE":"3538809","RA_OF_ASC_NODE":"176.4943","RCS_SIZE":"LARGE","MEAN_ELEMENT_THEORY":"SGP4","DECAY_DATE":null}];
